CCSDS_OMM_VERS = 2.0
CREATION_DATE  = 
ORIGINATOR     = 

OBJECT_NAME    = STARLINK-35323
OBJECT_ID      = 2025-235P
CENTER_NAME    = EARTH
REF_FRAME      = TEME
TIME_SYSTEM    = UTC
MEAN_ELEMENT_THEORY = SGP/SGP4

EPOCH          = 2025-11-02T12:00:02.000160
MEAN_MOTION    = 15.75338004
ECCENTRICITY   = .0001123
INCLINATION    = 53.1516
RA_OF_ASC_NODE = 120.1980
ARG_OF_PERICENTER = 84.9702
MEAN_ANOMALY   = 142.2689

EPHEMERIS_TYPE = 0
CLASSIFICATION_TYPE = U
NORAD_CAT_ID   = 66071
ELEMENT_SET_NO = 999
REV_AT_EPOCH   = 340
BSTAR          = -.95085E-2
MEAN_MOTION_DOT = -.1310267E-1
MEAN_MOTION_DDOT = 0

CCSDS_OMM_VERS = 2.0
CREATION_DATE  = 
ORIGINATOR     = 

OBJECT_NAME    = STARLINK-35299
OBJECT_ID      = 2025-235Q
CENTER_NAME    = EARTH
REF_FRAME      = TEME
TIME_SYSTEM    = UTC
MEAN_ELEMENT_THEORY = SGP/SGP4

EPOCH          = 2025-11-02T12:00:02.000160
MEAN_MOTION    = 15.75197420
ECCENTRICITY   = .0001021
INCLINATION    = 53.1508
RA_OF_ASC_NODE = 120.1898
ARG_OF_PERICENTER = 67.9884
MEAN_ANOMALY   = 163.2451

EPHEMERIS_TYPE = 0
CLASSIFICATION_TYPE = U
NORAD_CAT_ID   = 66072
ELEMENT_SET_NO = 999
REV_AT_EPOCH   = 340
BSTAR          = -.92114E-2
MEAN_MOTION_DOT = -.126636E-1
MEAN_MOTION_DDOT = 0

CCSDS_OMM_VERS = 2.0
CREATION_DATE  = 
ORIGINATOR     = 

OBJECT_NAME    = STARLINK-35274
OBJECT_ID      = 2025-235R
CENTER_NAME    = EARTH
REF_FRAME      = TEME
TIME_SYSTEM    = UTC
MEAN_ELEMENT_THEORY = SGP/SGP4

EPOCH          = 2025-11-02T12:00:02.000160
MEAN_MOTION    = 15.75153420
ECCENTRICITY   = .0000922
INCLINATION    = 53.1511
RA_OF_ASC_NODE = 120.1851
ARG_OF_PERICENTER = 84.8027
MEAN_ANOMALY   = 148.3960

EPHEMERIS_TYPE = 0
CLASSIFICATION_TYPE = U
NORAD_CAT_ID   = 66073
ELEMENT_SET_NO = 999
REV_AT_EPOCH   = 340
BSTAR          = -.91225E-2
MEAN_MOTION_DOT = -.1253128E-1
MEAN_MOTION_DDOT = 0

CCSDS_OMM_VERS = 2.0
CREATION_DATE  = 
ORIGINATOR     = 

OBJECT_NAME    = STARLINK-35321
OBJECT_ID      = 2025-235S
CENTER_NAME    = EARTH
REF_FRAME      = TEME
TIME_SYSTEM    = UTC
MEAN_ELEMENT_THEORY = SGP/SGP4

EPOCH          = 2025-11-02T12:00:02.000160
MEAN_MOTION    = 15.74948257
ECCENTRICITY   = .0001282
INCLINATION    = 53.1513
RA_OF_ASC_NODE = 120.1803
ARG_OF_PERICENTER = 89.6971
MEAN_ANOMALY   = 145.5529

EPHEMERIS_TYPE = 0
CLASSIFICATION_TYPE = U
NORAD_CAT_ID   = 66074
ELEMENT_SET_NO = 999
REV_AT_EPOCH   = 341
BSTAR          = -.71024E-2
MEAN_MOTION_DOT = -.960471E-2
MEAN_MOTION_DDOT = 0

CCSDS_OMM_VERS = 2.0
CREATION_DATE  = 
ORIGINATOR     = 

OBJECT_NAME    = STARLINK-35131
OBJECT_ID      = 2025-235T
CENTER_NAME    = EARTH
REF_FRAME      = TEME
TIME_SYSTEM    = UTC
MEAN_ELEMENT_THEORY = SGP/SGP4

EPOCH          = 2025-11-02T12:00:02.000160
MEAN_MOTION    = 15.74557286
ECCENTRICITY   = .0000771
INCLINATION    = 53.1515
RA_OF_ASC_NODE = 120.1675
ARG_OF_PERICENTER = 103.9885
MEAN_ANOMALY   = 137.2955

EPHEMERIS_TYPE = 0
CLASSIFICATION_TYPE = U
NORAD_CAT_ID   = 66075
ELEMENT_SET_NO = 999
REV_AT_EPOCH   = 341
BSTAR          = -.48396E-2
MEAN_MOTION_DOT = -.666549E-2
MEAN_MOTION_DDOT = 0

CCSDS_OMM_VERS = 2.0
CREATION_DATE  = 
ORIGINATOR     = 

OBJECT_NAME    = STARLINK-34801
OBJECT_ID      = 2025-235U
CENTER_NAME    = EARTH
REF_FRAME      = TEME
TIME_SYSTEM    = UTC
MEAN_ELEMENT_THEORY = SGP/SGP4

EPOCH          = 2025-11-02T12:00:02.000160
MEAN_MOTION    = 15.74724007
ECCENTRICITY   = .0001103
INCLINATION    = 53.1515
RA_OF_ASC_NODE = 120.1761
ARG_OF_PERICENTER = 74.2196
MEAN_ANOMALY   = 163.1085

EPHEMERIS_TYPE = 0
CLASSIFICATION_TYPE = U
NORAD_CAT_ID   = 66076
ELEMENT_SET_NO = 999
REV_AT_EPOCH   = 341
BSTAR          = -.53732E-2
MEAN_MOTION_DOT = -.739091E-2
MEAN_MOTION_DDOT = 0

CCSDS_OMM_VERS = 2.0
CREATION_DATE  = 
ORIGINATOR     = 

OBJECT_NAME    = STARLINK-35129
OBJECT_ID      = 2025-235V
CENTER_NAME    = EARTH
REF_FRAME      = TEME
TIME_SYSTEM    = UTC
MEAN_ELEMENT_THEORY = SGP/SGP4

EPOCH          = 2025-11-02T12:00:02.000160
MEAN_MOTION    = 15.74679185
ECCENTRICITY   = .0001273
INCLINATION    = 53.1517
RA_OF_ASC_NODE = 120.1728
ARG_OF_PERICENTER = 79.1704
MEAN_ANOMALY   = 160.1139

EPHEMERIS_TYPE = 0
CLASSIFICATION_TYPE = U
NORAD_CAT_ID   = 66077
ELEMENT_SET_NO = 999
REV_AT_EPOCH   = 341
BSTAR          = -.53599E-2
MEAN_MOTION_DOT = -.736117E-2
MEAN_MOTION_DDOT = 0

CCSDS_OMM_VERS = 2.0
CREATION_DATE  = 
ORIGINATOR     = 

OBJECT_NAME    = STARLINK-35116
OBJECT_ID      = 2025-235W
CENTER_NAME    = EARTH
REF_FRAME      = TEME
TIME_SYSTEM    = UTC
MEAN_ELEMENT_THEORY = SGP/SGP4

EPOCH          = 2025-11-02T12:00:02.000160
MEAN_MOTION    = 15.74323078
ECCENTRICITY   = .0001056
INCLINATION    = 53.1517
RA_OF_ASC_NODE = 120.1584
ARG_OF_PERICENTER = 74.6138
MEAN_ANOMALY   = 170.6162

EPHEMERIS_TYPE = 0
CLASSIFICATION_TYPE = U
NORAD_CAT_ID   = 66078
ELEMENT_SET_NO = 999
REV_AT_EPOCH   = 341
BSTAR          = -.15105E-2
MEAN_MOTION_DOT = -.217502E-2
MEAN_MOTION_DDOT = 0

CCSDS_OMM_VERS = 2.0
CREATION_DATE  = 
ORIGINATOR     = 

OBJECT_NAME    = STARLINK-35402
OBJECT_ID      = 2025-235X
CENTER_NAME    = EARTH
REF_FRAME      = TEME
TIME_SYSTEM    = UTC
MEAN_ELEMENT_THEORY = SGP/SGP4

EPOCH          = 2025-11-02T12:00:02.000160
MEAN_MOTION    = 15.74232795
ECCENTRICITY   = .000127
INCLINATION    = 53.1524
RA_OF_ASC_NODE = 120.1549
ARG_OF_PERICENTER = 93.9063
MEAN_ANOMALY   = 153.2802

EPHEMERIS_TYPE = 0
CLASSIFICATION_TYPE = U
NORAD_CAT_ID   = 66079
ELEMENT_SET_NO = 999
REV_AT_EPOCH   = 341
BSTAR          = -.4077E-3
MEAN_MOTION_DOT = -.60029E-3
MEAN_MOTION_DDOT = 0

CCSDS_OMM_VERS = 2.0
CREATION_DATE  = 
ORIGINATOR     = 

OBJECT_NAME    = STARLINK-35325
OBJECT_ID      = 2025-235Y
CENTER_NAME    = EARTH
REF_FRAME      = TEME
TIME_SYSTEM    = UTC
MEAN_ELEMENT_THEORY = SGP/SGP4

EPOCH          = 2025-11-02T12:00:02.000160
MEAN_MOTION    = 15.74401010
ECCENTRICITY   = .0001003
INCLINATION    = 53.1512
RA_OF_ASC_NODE = 120.1630
ARG_OF_PERICENTER = 87.0820
MEAN_ANOMALY   = 156.1834

EPHEMERIS_TYPE = 0
CLASSIFICATION_TYPE = U
NORAD_CAT_ID   = 66080
ELEMENT_SET_NO = 999
REV_AT_EPOCH   = 341
BSTAR          = -.21812E-2
MEAN_MOTION_DOT = -.311408E-2
MEAN_MOTION_DDOT = 0

CCSDS_OMM_VERS = 2.0
CREATION_DATE  = 
ORIGINATOR     = 

OBJECT_NAME    = STARLINK-35403
OBJECT_ID      = 2025-235Z
CENTER_NAME    = EARTH
REF_FRAME      = TEME
TIME_SYSTEM    = UTC
MEAN_ELEMENT_THEORY = SGP/SGP4

EPOCH          = 2025-11-02T12:00:02.000160
MEAN_MOTION    = 15.74171378
ECCENTRICITY   = .0000555
INCLINATION    = 53.1526
RA_OF_ASC_NODE = 120.1481
ARG_OF_PERICENTER = 88.4198
MEAN_ANOMALY   = 162.6308

EPHEMERIS_TYPE = 0
CLASSIFICATION_TYPE = U
NORAD_CAT_ID   = 66081
ELEMENT_SET_NO = 999
REV_AT_EPOCH   = 341
BSTAR          = .25055E-3
MEAN_MOTION_DOT = .36194E-3
MEAN_MOTION_DDOT = 0

CCSDS_OMM_VERS = 2.0
CREATION_DATE  = 
ORIGINATOR     = 

OBJECT_NAME    = STARLINK-35011
OBJECT_ID      = 2025-235AA
CENTER_NAME    = EARTH
REF_FRAME      = TEME
TIME_SYSTEM    = UTC
MEAN_ELEMENT_THEORY = SGP/SGP4

EPOCH          = 2025-11-02T12:00:02.000160
MEAN_MOTION    = 15.74132867
ECCENTRICITY   = .0000708
INCLINATION    = 53.1523
RA_OF_ASC_NODE = 120.1501
ARG_OF_PERICENTER = 79.1490
MEAN_ANOMALY   = 169.9849

EPHEMERIS_TYPE = 0
CLASSIFICATION_TYPE = U
NORAD_CAT_ID   = 66082
ELEMENT_SET_NO = 999
REV_AT_EPOCH   = 341
BSTAR          = .6049E-3
MEAN_MOTION_DOT = .88681E-3
MEAN_MOTION_DDOT = 0

