STARLINK-35323          
1 66071U 25235P   25306.50002315 -.01310267  00000+0 -95085-2 0  9999
2 66071  53.1516 120.1980 0001123  84.9702 142.2689 15.75338004  3406
STARLINK-35299          
1 66072U 25235Q   25306.50002315 -.01266360  00000+0 -92114-2 0  9994
2 66072  53.1508 120.1898 0001021  67.9884 163.2451 15.75197420  3400
STARLINK-35274          
1 66073U 25235R   25306.50002315 -.01253128  00000+0 -91225-2 0  9995
2 66073  53.1511 120.1851 0000922  84.8027 148.3960 15.75153420  3401
STARLINK-35321          
1 66074U 25235S   25306.50002315 -.00960471  00000+0 -71024-2 0  9996
2 66074  53.1513 120.1803 0001282  89.6971 145.5529 15.74948257  3412
STARLINK-35131          
1 66075U 25235T   25306.50002315 -.00666549  00000+0 -48396-2 0  9992
2 66075  53.1515 120.1675 0000771 103.9885 137.2955 15.74557286  3417
STARLINK-34801          
1 66076U 25235U   25306.50002315 -.00739091  00000+0 -53732-2 0  9996
2 66076  53.1515 120.1761 0001103  74.2196 163.1085 15.74724007  3418
STARLINK-35129          
1 66077U 25235V   25306.50002315 -.00736117  00000+0 -53599-2 0  9994
2 66077  53.1517 120.1728 0001273  79.1704 160.1139 15.74679185  3414
STARLINK-35116          
1 66078U 25235W   25306.50002315 -.00217502  00000+0 -15105-2 0  9998
2 66078  53.1517 120.1584 0001056  74.6138 170.6162 15.74323078  3414
STARLINK-35402          
1 66079U 25235X   25306.50002315 -.00060029  00000+0 -40770-3 0  9996
2 66079  53.1524 120.1549 0001270  93.9063 153.2802 15.74232795  3416
STARLINK-35325          
1 66080U 25235Y   25306.50002315 -.00311408  00000+0 -21812-2 0  9993
2 66080  53.1512 120.1630 0001003  87.0820 156.1834 15.74401010  3410
STARLINK-35403          
1 66081U 25235Z   25306.50002315  .00036194  00000+0  25055-3 0  9992
2 66081  53.1526 120.1481 0000555  88.4198 162.6308 15.74171378  3413
STARLINK-35011          
1 66082U 25235AA  25306.50002315  .00088681  00000+0  60490-3 0  9993
2 66082  53.1523 120.1501 0000708  79.1490 169.9849 15.74132867  3416
